{
  "norad_id": 45185,
  "name": "STARLINK-1216",
  "history": [
    {
      "epoch": "2026-03-28T21:09:27.417312",
      "apogee_km": 476.10962224060313,
      "perigee_km": 474.3010252013728,
      "latitude_deg": 21.208101263207183,
      "longitude_deg": -136.86953632021323,
      "semi_major_axis_km": 6853.342323720987,
      "eccentricity": 0.00013195,
      "inclination_deg": 53.159,
      "raan_deg": 310.0851,
      "arg_perigee_deg": 83.9946,
      "mean_anomaly_deg": 276.1205,
      "mean_motion_rev_day": 15.30203264
    },
    {
      "epoch": "2026-03-29T00:17:33.704160",
      "apogee_km": 476.1105666335734,
      "perigee_km": 474.28894972324906,
      "latitude_deg": -52.8444209396779,
      "longitude_deg": -124.32921759993769,
      "semi_major_axis_km": 6853.3367581784105,
      "eccentricity": 0.0001329,
      "inclination_deg": 53.1592,
      "raan_deg": 309.4783,
      "arg_perigee_deg": 83.8696,
      "mean_anomaly_deg": 276.2456,
      "mean_motion_rev_day": 15.30205128
    }
  ]
}